[{"OBJECT_NAME":"YAOGAN-30 05C","OBJECT_ID":"2018-011D","EPOCH":"2026-03-09T22:46:23.359872","MEAN_MOTION":15.02099637,"ECCENTRICITY":0.00031952,"INCLINATION":34.998,"RA_OF_ASC_NODE":35.5831,"ARG_OF_PERICENTER":272.2506,"MEAN_ANOMALY":87.7836,"EPHEMERIS_TYPE":0,"CLASSIFICATION_TYPE":"U","NORAD_CAT_ID":43172,"ELEMENT_SET_NO":999,"REV_AT_EPOCH":44315,"BSTAR":0.00032814398,"MEAN_MOTION_DOT":4.373e-5,"MEAN_MOTION_DDOT":0},{"OBJECT_NAME":"STARLINK-34926","OBJECT_ID":"2025-175W","EPOCH":"2026-03-09T14:43:25.355424","MEAN_MOTION":15.05656828,"ECCENTRICITY":0.000305,"INCLINATION":97.602,"RA_OF_ASC_NODE":302.6561,"ARG_OF_PERICENTER":98.7357,"MEAN_ANOMALY":261.4215,"EPHEMERIS_TYPE":0,"CLASSIFICATION_TYPE":"U","NORAD_CAT_ID":65194,"ELEMENT_SET_NO":999,"REV_AT_EPOCH":3260,"BSTAR":0.00051926,"MEAN_MOTION_DOT":7.441e-5,"MEAN_MOTION_DDOT":0}]
